NORAD_CAT_ID,OBJECT_NAME,OBJECT_TYPE,EPOCH,MEAN_MOTION,ECCENTRICITY,INCLINATION,RA_OF_ASC_NODE,ARG_OF_PERICENTER,MEAN_ANOMALY,BSTAR,MEAN_MOTION_DOT,MEAN_MOTION_DDOT,TLE_LINE0,TLE_LINE1,TLE_LINE2,SEMIMAJOR_AXIS,PERIOD,APOGEE,PERIGEE,DECAYED
56818.0,STARLINK-6028,PAYLOAD,2024-04-17 12:24:51,14.98326599,0.0002487,70.0008,286.9681,264.414,95.6735,2.2488e-05,1.75e-06,0.0,0 STARLINK-6028,1 56818U 23078BD  24108.51726361  .00000175  00000-0  22488-4 0  9995,2 56818  70.0008 286.9681 0002487 264.4140  95.6735 14.98326599 49416,6950.203,96.107,573.797,570.34,0.0
56818.0,STARLINK-6028,PAYLOAD,2024-04-17 14:00:59,14.98322795,0.000288,70.0003,286.8008,258.3922,101.6913,-1.9769e-05,-3.29e-06,0.0,0 STARLINK-6028,1 56818U 23078BD  24108.58402623 -.00000329  00000-0 -19769-4 0  9995,2 56818  70.0003 286.8008 0002880 258.3922 101.6913 14.98322795 49858,6950.215,96.107,574.082,570.079,0.0
56818.0,STARLINK-6028,PAYLOAD,2024-04-17 18:49:24,14.98320678,0.0002961,69.9997,286.2964,255.1988,104.8843,-6.4112e-05,-8.58e-06,0.0,0 STARLINK-6028,1 56818U 23078BD  24108.78430922 -.00000858  00000-0 -64112-4 0  9999,2 56818  69.9997 286.2964 0002961 255.1988 104.8843 14.98320678 49450,6950.222,96.108,574.145,570.029,0.0
56818.0,STARLINK-6028,PAYLOAD,2024-04-17 22:01:40,14.98319252,0.0002868,69.9998,285.9588,259.6493,100.4342,-7.9816e-05,-1.045e-05,0.0,0 STARLINK-6028,1 56818U 23078BD  24108.91783172 -.00001045  00000-0 -79816-4 0  9998,2 56818  69.9998 285.9588 0002868 259.6493 100.4342 14.98319252 49907,6950.226,96.108,574.084,570.098,0.0
56818.0,STARLINK-6028,PAYLOAD,2024-04-18 12:26:52,14.9833373,0.0003329,69.998,284.4425,268.7759,91.3018,2.1717e-05,1.66e-06,0.0,0 STARLINK-6028,1 56818U 23078BD  24109.51866065  .00000166  00000-0  21717-4 0  9996,2 56818  69.9980 284.4425 0003329 268.7759  91.3018 14.98333730 49568,6950.181,96.107,574.36,569.733,0.0
56818.0,STARLINK-6028,PAYLOAD,2024-04-18 14:03:00,14.98335794,0.0003231,69.9982,284.2739,265.8985,94.1805,6.2403e-05,6.52e-06,0.0,0 STARLINK-6028,1 56818U 23078BD  24109.58541819  .00000652  00000-0  62403-4 0  9997,2 56818  69.9982 284.2739 0003231 265.8985  94.1805 14.98335794 50005,6950.175,96.107,574.286,569.794,0.0
56818.0,STARLINK-6028,PAYLOAD,2024-04-18 20:27:31,14.98341595,0.0003137,69.9986,283.6012,265.2867,94.7934,0.00011277,1.253e-05,0.0,0 STARLINK-6028,1 56818U 23078BD  24109.85245274  .00001253  00000-0  11277-3 0  9993,2 56818  69.9986 283.6012 0003137 265.2867  94.7934 14.98341595 49614,6950.157,96.106,574.202,569.842,0.0
56818.0,STARLINK-6028,PAYLOAD,2024-04-18 22:03:39,14.98343803,0.0003236,69.9985,283.4332,264.8247,95.2542,0.000118,1.316e-05,0.0,0 STARLINK-6028,1 56818U 23078BD  24109.91921079  .00001316  00000-0  11800-3 0  9996,2 56818  69.9985 283.4332 0003236 264.8247  95.2542 14.98343803 50058,6950.15,96.106,574.264,569.766,0.0
56818.0,STARLINK-6028,PAYLOAD,2024-04-19 12:28:51,14.98347932,0.0003965,69.9975,281.9174,281.3341,78.7373,0.00040702,4.769e-05,0.0,0 STARLINK-6028,1 56818U 23078BD  24110.52003580  .00004769  00000-0  40702-3 0  9991,2 56818  69.9975 281.9174 0003965 281.3341  78.7373 14.98347932 49718,6950.137,96.106,574.758,569.247,0.0
56818.0,STARLINK-6028,PAYLOAD,2024-04-19 14:04:56,14.98390722,0.0003393,69.9983,281.7495,267.1539,92.9231,0.00081841,9.701e-05,0.0,0 STARLINK-6028,1 56818U 23078BD  24110.58676017  .00009701  00000-0  81841-3 0  9998,2 56818  69.9983 281.7495 0003393 267.1539  92.9231 14.98390722 50153,6950.005,96.103,574.228,569.512,0.0
56818.0,STARLINK-6028,PAYLOAD,2024-04-19 20:29:33,14.98321372,0.0003124,69.9989,281.0767,261.7025,98.378,4.3363e-05,4.24e-06,0.0,0 STARLINK-6028,1 56818U 23078BD  24110.85385914  .00000424  00000-0  43363-4 0  9992,2 56818  69.9989 281.0767 0003124 261.7025  98.3780 14.98321372 49765,6950.22,96.108,574.256,569.913,0.0
56818.0,STARLINK-6028,PAYLOAD,2024-04-19 22:05:41,14.98321501,0.0003146,69.9988,280.9083,262.14,97.9402,4.7044e-05,4.68e-06,0.0,0 STARLINK-6028,1 56818U 23078BD  24110.92061960  .00000468  00000-0  47044-4 0  9990,2 56818  69.9988 280.9083 0003146 262.1400  97.9402 14.98321501 50200,6950.219,96.108,574.271,569.898,0.0
56818.0,STARLINK-6028,PAYLOAD,2024-04-20 14:07:02,14.98320386,0.0002754,69.9999,279.2259,255.194,104.8914,-0.00016929,-2.112e-05,0.0,0 STARLINK-6028,1 56818U 23078BD  24111.58822870 -.00002112  00000-0 -16929-3 0  9995,2 56818  69.9999 279.2259 0002754 255.1940 104.8914 14.98320386 50300,6950.223,96.108,574.002,570.174,0.0
56818.0,STARLINK-6028,PAYLOAD,2024-04-20 20:31:35,14.98317353,0.0002822,70.0001,278.5527,254.9834,105.1013,-0.00019569,-2.426e-05,0.0,0 STARLINK-6028,1 56818U 23078BD  24111.85527232 -.00002426  00000-0 -19569-3 0  9990,2 56818  70.0001 278.5527 0002822 254.9834 105.1013 14.98317353 49911,6950.232,96.108,574.058,570.136,0.0
56818.0,STARLINK-6028,PAYLOAD,2024-04-21 14:09:02,14.98358194,0.0003662,69.999,276.6989,278.9894,81.0851,-0.00048814,-5.917e-05,0.0,0 STARLINK-6028,1 56818U 23078BD  24112.58961223 -.00005917  00000-0 -48814-3 0  9996,2 56818  69.9990 276.6989 0003662 278.9894  81.0851 14.98358194 50452,6950.106,96.105,574.516,569.426,0.0
56818.0,STARLINK-6028,PAYLOAD,2024-04-21 20:33:33,14.983613,0.0002625,70.0017,276.0304,256.1109,103.9758,-0.00037065,-4.516e-05,0.0,0 STARLINK-6028,1 56818U 23078BD  24112.85664299 -.00004516  00000-0 -37065-3 0  9999,2 56818  70.0017 276.0304 0002625 256.1109 103.9758 14.98361300 50492,6950.096,96.105,573.786,570.137,0.0
56818.0,STARLINK-6028,PAYLOAD,2024-04-22 10:58:48,14.98319676,0.0002136,70.0025,274.5163,231.4719,128.6248,0.00034587,4.035e-05,0.0,0 STARLINK-6028,1 56818U 23078BD  24113.45750182  .00004035  00000-0  34587-3 0  9993,2 56818  70.0025 274.5163 0002136 231.4719 128.6248 14.98319676 50157,6950.225,96.108,573.574,570.605,0.0
56818.0,STARLINK-6028,PAYLOAD,2024-04-22 20:35:37,14.98315826,0.0002636,70.0004,273.5057,258.91,101.1763,0.00018628,2.13e-05,0.0,0 STARLINK-6028,1 56818U 23078BD  24113.85806970  .00002130  00000-0  18628-3 0  9996,2 56818  70.0004 273.5057 0002636 258.9100 101.1763 14.98315826 50216,6950.237,96.108,573.934,570.27,0.0
56818.0,STARLINK-6028,PAYLOAD,2024-04-23 12:36:57,14.98333665,0.0002771,69.9999,271.82,261.0051,99.0794,4.3564e-05,4.27e-06,0.0,0 STARLINK-6028,1 56818U 23078BD  24114.52566294  .00000427  00000-0  43564-4 0  9998,2 56818  69.9999 271.8200 0002771 261.0051  99.0794 14.98333665 50318,6950.182,96.107,573.972,570.121,0.0
56818.0,STARLINK-6028,PAYLOAD,2024-04-23 14:13:05,14.98333535,0.0002745,69.9999,271.6513,260.3597,99.7251,3.704e-05,3.49e-06,0.0,0 STARLINK-6028,1 56818U 23078BD  24114.59242292  .00000349  00000-0  37040-4 0  9999,2 56818  69.9999 271.6513 0002745 260.3597  99.7251 14.98333535 50750,6950.182,96.107,573.955,570.139,0.0
56818.0,STARLINK-6028,PAYLOAD,2024-04-23 20:37:36,14.98342532,0.0002851,69.9996,270.9748,262.9309,97.1526,0.00016633,1.893e-05,0.0,0 STARLINK-6028,1 56818U 23078BD  24114.85945383  .00001893  00000-0  16633-3 0  9998,2 56818  69.9996 270.9748 0002851 262.9309  97.1526 14.98342532 50367,6950.154,96.106,574.001,570.038,0.0
56818.0,STARLINK-6028,PAYLOAD,2024-04-24 12:38:58,14.98325553,0.00028,69.9993,269.2924,264.3875,95.6965,0.00011591,1.29e-05,0.0,0 STARLINK-6028,1 56818U 23078BD  24115.52706578  .00001290  00000-0  11591-3 0  9993,2 56818  69.9993 269.2924 0002800 264.3875  95.6965 14.98325553 50464,6950.207,96.107,574.018,570.126,0.0
56818.0,STARLINK-6028,PAYLOAD,2024-04-24 14:15:06,14.98326357,0.0002712,69.9996,269.1243,265.6992,94.3857,0.00013059,1.465e-05,0.0,0 STARLINK-6028,1 56818U 23078BD  24115.59382557  .00001465  00000-0  13059-3 0  9992,2 56818  69.9996 269.1243 0002712 265.6992  94.3857 14.98326357 50904,6950.204,96.107,573.954,570.184,0.0
56818.0,STARLINK-6028,PAYLOAD,2024-04-24 20:39:38,14.98330624,0.0002719,69.9999,268.4518,261.8021,98.283,0.00017753,2.026e-05,0.0,0 STARLINK-6028,1 56818U 23078BD  24115.86086303  .00002026  00000-0  17753-3 0  9991,2 56818  69.9999 268.4518 0002719 261.8021  98.2830 14.98330624 50942,6950.191,96.107,573.946,570.166,0.0
56818.0,STARLINK-6028,PAYLOAD,2024-04-25 12:40:59,14.98330452,0.000247,70.0009,266.7688,257.2146,102.8737,7.1065e-05,7.55e-06,0.0,0 STARLINK-6028,1 56818U 23078BD  24116.52846722  .00000755  00000-0  71065-4 0  9998,2 56818  70.0009 266.7688 0002470 257.2146 102.8737 14.98330452 50618,6950.191,96.107,573.773,570.34,0.0
56818.0,STARLINK-6028,PAYLOAD,2024-04-25 14:17:07,14.98331105,0.0002487,70.0008,266.6013,246.084,114.0058,5.5188e-05,5.66e-06,0.0,0 STARLINK-6028,1 56818U 23078BD  24116.59522481  .00000566  00000-0  55188-4 0  9996,2 56818  70.0008 266.6013 0002487 246.0840 114.0058 14.98331105 51059,6950.189,96.107,573.783,570.326,0.0
56818.0,STARLINK-6028,PAYLOAD,2024-04-25 20:41:39,14.98333273,0.0002385,70.0011,265.9268,251.7064,108.3836,0.00011999,1.339e-05,0.0,0 STARLINK-6028,1 56818U 23078BD  24116.86226484  .00001339  00000-0  11999-3 0  9990,2 56818  70.0011 265.9268 0002385 251.7064 108.3836 14.98333273 51097,6950.183,96.107,573.705,570.39,0.0
56818.0,STARLINK-6028,PAYLOAD,2024-04-26 12:43:00,14.9833284,0.0002811,70.0002,264.2444,262.5138,97.5702,0.00012841,1.44e-05,0.0,0 STARLINK-6028,1 56818U 23078BD  24117.52986117  .00001440  00000-0  12841-3 0  9990,2 56818  70.0002 264.2444 0002811 262.5138  97.5702 14.98332840 50764,6950.184,96.107,574.003,570.095,0.0
56818.0,STARLINK-6028,PAYLOAD,2024-04-26 14:19:07,14.98333978,0.0002787,70.0002,264.0763,261.9995,98.0848,0.00013374,1.503e-05,0.0,0 STARLINK-6028,1 56818U 23078BD  24117.59662025  .00001503  00000-0  13374-3 0  9998,2 56818  70.0002 264.0763 0002787 261.9995  98.0848 14.98333978 51202,6950.181,96.107,573.983,570.109,0.0
56818.0,STARLINK-6028,PAYLOAD,2024-04-26 19:07:32,14.98333076,0.0002565,70.0005,263.5695,253.9034,106.1843,0.00031948,3.721e-05,0.0,0 STARLINK-6028,1 56818U 23078BD  24117.79689829  .00003721  00000-0  31948-3 0  9992,2 56818  70.0005 263.5695 0002565 253.9034 106.1843 14.98333076 51230,6950.183,96.107,573.831,570.266,0.0
